{
  "type": "FeatureCollection",
  "features": [
    {
      "type": "Feature",
      "properties": {
        "fid": 0,
        "acess_TC": "Plus de 10 minutes",
        "articu_piste_cyclable": "Acces direct",
        "acess_restauration": "Moins de 5 minutes",
        "acess_echangeur": "Moins de 10 minutes",
        "proximite_res_elect": "Plus de 400 m",
        "articu_zae_existante": "Moins de 500 m",
        "enjeux_forestier": "Oui",
        "expo_risq_inondation": "Oui",
        "expo_risque_mvt_terrain": "Oui",
        "pres_zone_hum_res_biodiv": "Oui",
        "pente_moy_terrain": "Faible (< 10 %)",
        "posi_armature_urbaine": "Coeur métropolitain",
        "maitrise_fonciere": "Privé",
        "proximite_aep": "Moins de 400 m",
        "proximite_res_chauffage_urb": "Moins de 400 m",
        "std_acess_TC": 0.5,
        "std_articu_piste_cyclable": 1.0,
        "std_acess_restauration": 1.0,
        "std_acess_echangeur": 1.0,
        "std_posi_armature_urbaine": 1.0,
        "std_proximite_res_elect": 0.5,
        "std_articu_zae_existante": 1.0,
        "std_proximite_aep": 1.0,
        "std_proximite_res_chauffage_urb": 1.0,
        "std_enjeux_forestier": 0.25,
        "std_expo_risq_inondation": 0.25,
        "std_expo_risque_mvt_terrain": 0.25,
        "std_pres_zone_hum_res_biodiv": 0.25,
        "std_pente_moy_terrain": 1.0,
        "std_maitrise_fonciere": 0.5,
        "mf_attractivite_geog": 0.9150893977825514,
        "mf_aptitude_aux_rese": 0.8055365686944634,
        "mf_enjeux_forestiers": 0.25,
        "mf_aptitude_physique": 0.625,
        "score_final": 0.4607540168073236,
        "classe_apt": "Potentiel de mobilisation modéré",
        "rang": 22,
        "ID": 1,
        "commune": "Lingolsheim",
        "epci": "Eurométropole de Strasbourg",
        "superficie_ha": 0.66
      },
      "geometry": {
        "type": "Point",
        "coordinates": [
          7.688763592494837,
          48.56648016309883
        ]
      }
    },
    {
      "type": "Feature",
      "properties": {
        "fid": 1,
        "acess_TC": "Plus de 10 minutes",
        "articu_piste_cyclable": "Acces indirect",
        "acess_restauration": "Entre 5 et 10 minutes",
        "acess_echangeur": "Plus de 20 minutes",
        "proximite_res_elect": "Moins de 400 m",
        "articu_zae_existante": "Moins de 500 m",
        "enjeux_forestier": "Non",
        "expo_risq_inondation": "Non",
        "expo_risque_mvt_terrain": "Oui",
        "pres_zone_hum_res_biodiv": "Non",
        "pente_moy_terrain": "Faible (< 10 %)",
        "posi_armature_urbaine": "Les Polarités",
        "maitrise_fonciere": "Privé",
        "proximite_aep": "Plus de 400 m",
        "proximite_res_chauffage_urb": "Plus de 400 m",
        "std_acess_TC": 0.5,
        "std_articu_piste_cyclable": 0.75,
        "std_acess_restauration": 0.75,
        "std_acess_echangeur": 0.5,
        "std_posi_armature_urbaine": 0.75,
        "std_proximite_res_elect": 0.75,
        "std_articu_zae_existante": 1.0,
        "std_proximite_aep": 0.5,
        "std_proximite_res_chauffage_urb": 0.5,
        "std_enjeux_forestier": 1.0,
        "std_expo_risq_inondation": 1.0,
        "std_expo_risque_mvt_terrain": 0.25,
        "std_pres_zone_hum_res_biodiv": 1.0,
        "std_pente_moy_terrain": 1.0,
        "std_maitrise_fonciere": 0.5,
        "mf_attractivite_geog": 0.62044807341088,
        "mf_aptitude_aux_rese": 0.6739576213260423,
        "mf_enjeux_forestiers": 0.7703125,
        "mf_aptitude_physique": 0.625,
        "score_final": 0.7102982749093403,
        "classe_apt": "Potentiel de mobilisation élevé",
        "rang": 4,
        "ID": 2,
        "commune": "Semersheim",
        "epci": "CdC du Canton d'Erstein",
        "superficie_ha": 1.87
      },
      "geometry": {
        "type": "Point",
        "coordinates": [
          7.544535996375948,
          48.344617396986564
        ]
      }
    },
    {
      "type": "Feature",
      "properties": {
        "fid": 2,
        "acess_TC": "Plus de 10 minutes",
        "articu_piste_cyclable": "Acces indirect",
        "acess_restauration": "Entre 5 et 10 minutes",
        "acess_echangeur": "Plus de 20 minutes",
        "proximite_res_elect": "Plus de 400 m",
        "articu_zae_existante": "Moins de 500 m",
        "enjeux_forestier": "Oui",
        "expo_risq_inondation": "Non",
        "expo_risque_mvt_terrain": "Oui",
        "pres_zone_hum_res_biodiv": "Oui",
        "pente_moy_terrain": "Faible (< 10 %)",
        "posi_armature_urbaine": "Les Polarités",
        "maitrise_fonciere": "Mixte",
        "proximite_aep": "Plus de 400 m",
        "proximite_res_chauffage_urb": "Plus de 400 m",
        "std_acess_TC": 0.5,
        "std_articu_piste_cyclable": 0.75,
        "std_acess_restauration": 0.75,
        "std_acess_echangeur": 0.5,
        "std_posi_armature_urbaine": 0.75,
        "std_proximite_res_elect": 0.5,
        "std_articu_zae_existante": 1.0,
        "std_proximite_aep": 0.5,
        "std_proximite_res_chauffage_urb": 0.5,
        "std_enjeux_forestier": 0.25,
        "std_expo_risq_inondation": 1.0,
        "std_expo_risque_mvt_terrain": 0.25,
        "std_pres_zone_hum_res_biodiv": 0.25,
        "std_pente_moy_terrain": 1.0,
        "std_maitrise_fonciere": 0.75,
        "mf_attractivite_geog": 0.62044807341088,
        "mf_aptitude_aux_rese": 0.5767259056732741,
        "mf_enjeux_forestiers": 0.4796875,
        "mf_aptitude_physique": 0.8125,
        "score_final": 0.5830590941895453,
        "classe_apt": "Potentiel de mobilisation modéré",
        "rang": 11,
        "ID": 3,
        "commune": "Huttenheim",
        "epci": "CdC du Canton d'Erstein",
        "superficie_ha": 2.67
      },
      "geometry": {
        "type": "Point",
        "coordinates": [
          7.562891845702689,
          48.357655294576574
        ]
      }
    },
    {
      "type": "Feature",
      "properties": {
        "fid": 3,
        "acess_TC": "Moins de 5 minutes",
        "articu_piste_cyclable": "Acces direct",
        "acess_restauration": "Moins de 5 minutes",
        "acess_echangeur": "Plus de 20 minutes",
        "proximite_res_elect": "Moins de 400 m",
        "articu_zae_existante": "Moins de 500 m",
        "enjeux_forestier": "Non",
        "expo_risq_inondation": "Non",
        "expo_risque_mvt_terrain": "Oui",
        "pres_zone_hum_res_biodiv": "Oui",
        "pente_moy_terrain": "Faible (< 10 %)",
        "posi_armature_urbaine": "Les Polarités",
        "maitrise_fonciere": "Mixte",
        "proximite_aep": "Moins de 400 m",
        "proximite_res_chauffage_urb": "Plus de 400 m",
        "std_acess_TC": 1.0,
        "std_articu_piste_cyclable": 1.0,
        "std_acess_restauration": 1.0,
        "std_acess_echangeur": 0.5,
        "std_posi_armature_urbaine": 0.75,
        "std_proximite_res_elect": 0.75,
        "std_articu_zae_existante": 1.0,
        "std_proximite_aep": 1.0,
        "std_proximite_res_chauffage_urb": 0.5,
        "std_enjeux_forestier": 1.0,
        "std_expo_risq_inondation": 1.0,
        "std_expo_risque_mvt_terrain": 0.25,
        "std_pres_zone_hum_res_biodiv": 0.25,
        "std_pente_moy_terrain": 1.0,
        "std_maitrise_fonciere": 0.75,
        "mf_attractivite_geog": 0.7387101235588129,
        "mf_aptitude_aux_rese": 0.868421052631579,
        "mf_enjeux_forestiers": 0.5875,
        "mf_aptitude_physique": 0.8125,
        "score_final": 0.678761755290356,
        "classe_apt": "Potentiel de mobilisation élevé",
        "rang": 5,
        "ID": 4,
        "commune": "Boofzheim",
        "epci": "CdC du Canton d'Erstein",
        "superficie_ha": 3.69
      },
      "geometry": {
        "type": "Point",
        "coordinates": [
          7.69070127888812,
          48.32780271738926
        ]
      }
    },
    {
      "type": "Feature",
      "properties": {
        "fid": 4,
        "acess_TC": "Entre 5 et 10 minutes",
        "articu_piste_cyclable": "Acces indirect",
        "acess_restauration": "Moins de 5 minutes",
        "acess_echangeur": "Moins de 10 minutes",
        "proximite_res_elect": "Plus de 400 m",
        "articu_zae_existante": "Moins de 500 m",
        "enjeux_forestier": "Non",
        "expo_risq_inondation": "Non",
        "expo_risque_mvt_terrain": "Oui",
        "pres_zone_hum_res_biodiv": "Oui",
        "pente_moy_terrain": "Faible (< 10 %)",
        "posi_armature_urbaine": "Village",
        "maitrise_fonciere": "Public",
        "proximite_aep": "Moins de 400 m",
        "proximite_res_chauffage_urb": "Plus de 400 m",
        "std_acess_TC": 0.75,
        "std_articu_piste_cyclable": 0.75,
        "std_acess_restauration": 1.0,
        "std_acess_echangeur": 1.0,
        "std_posi_armature_urbaine": 0.5,
        "std_proximite_res_elect": 0.5,
        "std_articu_zae_existante": 1.0,
        "std_proximite_aep": 1.0,
        "std_proximite_res_chauffage_urb": 0.5,
        "std_enjeux_forestier": 1.0,
        "std_expo_risq_inondation": 1.0,
        "std_expo_risque_mvt_terrain": 0.25,
        "std_pres_zone_hum_res_biodiv": 0.25,
        "std_pente_moy_terrain": 1.0,
        "std_maitrise_fonciere": 1.0,
        "mf_attractivite_geog": 0.762438876444093,
        "mf_aptitude_aux_rese": 0.7711893369788106,
        "mf_enjeux_forestiers": 0.5875,
        "mf_aptitude_physique": 1.0,
        "score_final": 0.7198656585946299,
        "classe_apt": "Potentiel de mobilisation élevé",
        "rang": 2,
        "ID": 5,
        "commune": "Wilwisheim",
        "epci": "CdC du Pays de la Zorn",
        "superficie_ha": 1.05
      },
      "geometry": {
        "type": "Point",
        "coordinates": [
          7.517389846281673,
          48.74819230073444
        ]
      }
    },
    {
      "type": "Feature",
      "properties": {
        "fid": 5,
        "acess_TC": "Plus de 10 minutes",
        "articu_piste_cyclable": "Acces indirect",
        "acess_restauration": "Moins de 5 minutes",
        "acess_echangeur": "Plus de 20 minutes",
        "proximite_res_elect": "Plus de 400 m",
        "articu_zae_existante": "Moins de 500 m",
        "enjeux_forestier": "Non",
        "expo_risq_inondation": "Non",
        "expo_risque_mvt_terrain": "Oui",
        "pres_zone_hum_res_biodiv": "Non",
        "pente_moy_terrain": "Faible (< 10 %)",
        "posi_armature_urbaine": "Les Polarités",
        "maitrise_fonciere": "Privé",
        "proximite_aep": "Moins de 400 m",
        "proximite_res_chauffage_urb": "Plus de 400 m",
        "std_acess_TC": 0.5,
        "std_articu_piste_cyclable": 0.75,
        "std_acess_restauration": 1.0,
        "std_acess_echangeur": 0.5,
        "std_posi_armature_urbaine": 0.75,
        "std_proximite_res_elect": 0.5,
        "std_articu_zae_existante": 1.0,
        "std_proximite_aep": 1.0,
        "std_proximite_res_chauffage_urb": 0.5,
        "std_enjeux_forestier": 1.0,
        "std_expo_risq_inondation": 1.0,
        "std_expo_risque_mvt_terrain": 0.25,
        "std_pres_zone_hum_res_biodiv": 1.0,
        "std_pente_moy_terrain": 1.0,
        "std_maitrise_fonciere": 0.5,
        "mf_attractivite_geog": 0.6328869498549732,
        "mf_aptitude_aux_rese": 0.7711893369788106,
        "mf_enjeux_forestiers": 0.7703125,
        "mf_aptitude_physique": 0.625,
        "score_final": 0.718303396383239,
        "classe_apt": "Potentiel de mobilisation élevé",
        "rang": 3,
        "ID": 6,
        "commune": "Benfeld",
        "epci": "CdC du Canton d'Erstein",
        "superficie_ha": 5.47
      },
      "geometry": {
        "type": "Point",
        "coordinates": [
          7.599158854578811,
          48.37741990426479
        ]
      }
    },
    {
      "type": "Feature",
      "properties": {
        "fid": 9,
        "acess_TC": "Plus de 10 minutes",
        "articu_piste_cyclable": "Acces direct",
        "acess_restauration": "Moins de 5 minutes",
        "acess_echangeur": "Entre 10 et 20 minutes",
        "proximite_res_elect": "Moins de 400 m",
        "articu_zae_existante": "Moins de 500 m",
        "enjeux_forestier": "Non",
        "expo_risq_inondation": "Non",
        "expo_risque_mvt_terrain": "Oui",
        "pres_zone_hum_res_biodiv": "Non",
        "pente_moy_terrain": "Faible (< 10 %)",
        "posi_armature_urbaine": "Les Polarités",
        "maitrise_fonciere": "Privé",
        "proximite_aep": "Moins de 400 m",
        "proximite_res_chauffage_urb": "Plus de 400 m",
        "std_acess_TC": 0.5,
        "std_articu_piste_cyclable": 1.0,
        "std_acess_restauration": 1.0,
        "std_acess_echangeur": 0.75,
        "std_posi_armature_urbaine": 0.75,
        "std_proximite_res_elect": 0.75,
        "std_articu_zae_existante": 1.0,
        "std_proximite_aep": 1.0,
        "std_proximite_res_chauffage_urb": 0.5,
        "std_enjeux_forestier": 1.0,
        "std_expo_risq_inondation": 1.0,
        "std_expo_risque_mvt_terrain": 0.25,
        "std_pres_zone_hum_res_biodiv": 1.0,
        "std_pente_moy_terrain": 1.0,
        "std_maitrise_fonciere": 0.5,
        "mf_attractivite_geog": 0.7408961468217601,
        "mf_aptitude_aux_rese": 0.868421052631579,
        "mf_enjeux_forestiers": 0.7703125,
        "mf_aptitude_physique": 0.625,
        "score_final": 0.7385457078428965,
        "classe_apt": "Potentiel de mobilisation élevé",
        "rang": 1,
        "ID": 7,
        "commune": "Wiwersheim",
        "epci": "CdC de Kochersberg",
        "superficie_ha": 9.22
      },
      "geometry": {
        "type": "Point",
        "coordinates": [
          7.602545158704315,
          48.6446222459129
        ]
      }
    },
    {
      "type": "Feature",
      "properties": {
        "fid": 10,
        "acess_TC": "Entre 5 et 10 minutes",
        "articu_piste_cyclable": "Acces direct",
        "acess_restauration": "Moins de 5 minutes",
        "acess_echangeur": "Moins de 10 minutes",
        "proximite_res_elect": "Moins de 400 m",
        "articu_zae_existante": "Moins de 500 m",
        "enjeux_forestier": "Non",
        "expo_risq_inondation": "Oui",
        "expo_risque_mvt_terrain": "Oui",
        "pres_zone_hum_res_biodiv": "Non",
        "pente_moy_terrain": "Faible (< 10 %)",
        "posi_armature_urbaine": "Coeur métropolitain",
        "maitrise_fonciere": "Privé",
        "proximite_aep": "Moins de 400 m",
        "proximite_res_chauffage_urb": "Moins de 400 m",
        "std_acess_TC": 0.75,
        "std_articu_piste_cyclable": 1.0,
        "std_acess_restauration": 1.0,
        "std_acess_echangeur": 1.0,
        "std_posi_armature_urbaine": 1.0,
        "std_proximite_res_elect": 0.75,
        "std_articu_zae_existante": 1.0,
        "std_proximite_aep": 1.0,
        "std_proximite_res_chauffage_urb": 1.0,
        "std_enjeux_forestier": 1.0,
        "std_expo_risq_inondation": 0.25,
        "std_expo_risque_mvt_terrain": 0.25,
        "std_pres_zone_hum_res_biodiv": 1.0,
        "std_pente_moy_terrain": 1.0,
        "std_maitrise_fonciere": 0.5,
        "mf_attractivite_geog": 0.9575446988912756,
        "mf_aptitude_aux_rese": 0.9027682843472318,
        "mf_enjeux_forestiers": 0.540625,
        "mf_aptitude_physique": 0.625,
        "score_final": 0.6379073198890515,
        "classe_apt": "Potentiel de mobilisation modéré",
        "rang": 8,
        "ID": 8,
        "commune": "Mittelhausbergen",
        "epci": "Eurométropole de Strasbourg",
        "superficie_ha": 10.4
      },
      "geometry": {
        "type": "Point",
        "coordinates": [
          7.703992892118079,
          48.60744141209703
        ]
      }
    },
    {
      "type": "Feature",
      "properties": {
        "fid": 11,
        "acess_TC": "Plus de 10 minutes",
        "articu_piste_cyclable": "Acces direct",
        "acess_restauration": "Moins de 5 minutes",
        "acess_echangeur": "Moins de 10 minutes",
        "proximite_res_elect": "Moins de 400 m",
        "articu_zae_existante": "Moins de 500 m",
        "enjeux_forestier": "Non",
        "expo_risq_inondation": "Oui",
        "expo_risque_mvt_terrain": "Oui",
        "pres_zone_hum_res_biodiv": "Non",
        "pente_moy_terrain": "Faible (< 10 %)",
        "posi_armature_urbaine": "Les Polarités",
        "maitrise_fonciere": "Mixte",
        "proximite_aep": "Moins de 400 m",
        "proximite_res_chauffage_urb": "Plus de 400 m",
        "std_acess_TC": 0.5,
        "std_articu_piste_cyclable": 1.0,
        "std_acess_restauration": 1.0,
        "std_acess_echangeur": 1.0,
        "std_posi_armature_urbaine": 0.75,
        "std_proximite_res_elect": 0.75,
        "std_articu_zae_existante": 1.0,
        "std_proximite_aep": 1.0,
        "std_proximite_res_chauffage_urb": 0.5,
        "std_enjeux_forestier": 1.0,
        "std_expo_risq_inondation": 0.25,
        "std_expo_risque_mvt_terrain": 0.25,
        "std_pres_zone_hum_res_biodiv": 1.0,
        "std_pente_moy_terrain": 1.0,
        "std_maitrise_fonciere": 0.75,
        "mf_attractivite_geog": 0.8279927723021557,
        "mf_aptitude_aux_rese": 0.868421052631579,
        "mf_enjeux_forestiers": 0.540625,
        "mf_aptitude_physique": 0.8125,
        "score_final": 0.6635317890478741,
        "classe_apt": "Potentiel de mobilisation modéré",
        "rang": 6,
        "ID": 9,
        "commune": "Mundolsheim - Niederhausbergen",
        "epci": "Eurométropole de Strasbourg",
        "superficie_ha": 8.75
      },
      "geometry": {
        "type": "Point",
        "coordinates": [
          7.717629545666094,
          48.62721790574876
        ]
      }
    },
    {
      "type": "Feature",
      "properties": {
        "fid": 12,
        "acess_TC": "Plus de 10 minutes",
        "articu_piste_cyclable": "Acces direct",
        "acess_restauration": "Moins de 5 minutes",
        "acess_echangeur": "Moins de 10 minutes",
        "proximite_res_elect": "Moins de 400 m",
        "articu_zae_existante": "Moins de 500 m",
        "enjeux_forestier": "Oui",
        "expo_risq_inondation": "Oui",
        "expo_risque_mvt_terrain": "Oui",
        "pres_zone_hum_res_biodiv": "Oui",
        "pente_moy_terrain": "Faible (< 10 %)",
        "posi_armature_urbaine": "Coeur métropolitain",
        "maitrise_fonciere": "Mixte",
        "proximite_aep": "Moins de 400 m",
        "proximite_res_chauffage_urb": "Plus de 400 m",
        "std_acess_TC": 0.5,
        "std_articu_piste_cyclable": 1.0,
        "std_acess_restauration": 1.0,
        "std_acess_echangeur": 1.0,
        "std_posi_armature_urbaine": 1.0,
        "std_proximite_res_elect": 0.75,
        "std_articu_zae_existante": 1.0,
        "std_proximite_aep": 1.0,
        "std_proximite_res_chauffage_urb": 0.5,
        "std_enjeux_forestier": 0.25,
        "std_expo_risq_inondation": 0.25,
        "std_expo_risque_mvt_terrain": 0.25,
        "std_pres_zone_hum_res_biodiv": 0.25,
        "std_pente_moy_terrain": 1.0,
        "std_maitrise_fonciere": 0.75,
        "mf_attractivite_geog": 0.9150893977825514,
        "mf_aptitude_aux_rese": 0.868421052631579,
        "mf_enjeux_forestiers": 0.25,
        "mf_aptitude_physique": 0.8125,
        "score_final": 0.5093792110604816,
        "classe_apt": "Potentiel de mobilisation modéré",
        "rang": 18,
        "ID": 10,
        "commune": "Ostwald",
        "epci": "Eurométropole de Strasbourg",
        "superficie_ha": 12.06
      },
      "geometry": {
        "type": "Point",
        "coordinates": [
          7.698793953850015,
          48.53963119186438
        ]
      }
    },
    {
      "type": "Feature",
      "properties": {
        "fid": 13,
        "acess_TC": "Plus de 10 minutes",
        "articu_piste_cyclable": "Absence",
        "acess_restauration": "Moins de 5 minutes",
        "acess_echangeur": "Moins de 10 minutes",
        "proximite_res_elect": "Moins de 400 m",
        "articu_zae_existante": "Moins de 500 m",
        "enjeux_forestier": "Oui",
        "expo_risq_inondation": "Oui",
        "expo_risque_mvt_terrain": "Oui",
        "pres_zone_hum_res_biodiv": "Oui",
        "pente_moy_terrain": "Faible (< 10 %)",
        "posi_armature_urbaine": "Les Polarités",
        "maitrise_fonciere": "Mixte",
        "proximite_aep": "Moins de 400 m",
        "proximite_res_chauffage_urb": "Moins de 400 m",
        "std_acess_TC": 0.5,
        "std_articu_piste_cyclable": 0.5,
        "std_acess_restauration": 1.0,
        "std_acess_echangeur": 1.0,
        "std_posi_armature_urbaine": 0.75,
        "std_proximite_res_elect": 0.75,
        "std_articu_zae_existante": 1.0,
        "std_proximite_aep": 1.0,
        "std_proximite_res_chauffage_urb": 1.0,
        "std_enjeux_forestier": 0.25,
        "std_expo_risq_inondation": 0.25,
        "std_expo_risque_mvt_terrain": 0.25,
        "std_pres_zone_hum_res_biodiv": 0.25,
        "std_pente_moy_terrain": 1.0,
        "std_maitrise_fonciere": 0.75,
        "mf_attractivite_geog": 0.7861676293293733,
        "mf_aptitude_aux_rese": 0.9027682843472318,
        "mf_enjeux_forestiers": 0.25,
        "mf_aptitude_physique": 0.8125,
        "score_final": 0.4951367626866243,
        "classe_apt": "Potentiel de mobilisation modéré",
        "rang": 19,
        "ID": 11,
        "commune": "Reichstett",
        "epci": "Eurométropole de Strasbourg",
        "superficie_ha": 13.17
      },
      "geometry": {
        "type": "Point",
        "coordinates": [
          7.750562587807065,
          48.65418827661115
        ]
      }
    },
    {
      "type": "Feature",
      "properties": {
        "fid": 16,
        "acess_TC": "Plus de 10 minutes",
        "articu_piste_cyclable": "Acces indirect",
        "acess_restauration": "Plus de 10 minutes",
        "acess_echangeur": "Moins de 10 minutes",
        "proximite_res_elect": "Moins de 400 m",
        "articu_zae_existante": "Moins de 500 m",
        "enjeux_forestier": "Oui",
        "expo_risq_inondation": "Oui",
        "expo_risque_mvt_terrain": "Oui",
        "pres_zone_hum_res_biodiv": "Oui",
        "pente_moy_terrain": "Faible (< 10 %)",
        "posi_armature_urbaine": "Les Polarités",
        "maitrise_fonciere": "Mixte",
        "proximite_aep": "Moins de 400 m",
        "proximite_res_chauffage_urb": "Plus de 400 m",
        "std_acess_TC": 0.5,
        "std_articu_piste_cyclable": 0.75,
        "std_acess_restauration": 0.5,
        "std_acess_echangeur": 1.0,
        "std_posi_armature_urbaine": 0.75,
        "std_proximite_res_elect": 0.75,
        "std_articu_zae_existante": 1.0,
        "std_proximite_aep": 1.0,
        "std_proximite_res_chauffage_urb": 0.5,
        "std_enjeux_forestier": 0.25,
        "std_expo_risq_inondation": 0.25,
        "std_expo_risque_mvt_terrain": 0.25,
        "std_pres_zone_hum_res_biodiv": 0.25,
        "std_pente_moy_terrain": 1.0,
        "std_maitrise_fonciere": 0.75,
        "mf_attractivite_geog": 0.7822024479275782,
        "mf_aptitude_aux_rese": 0.868421052631579,
        "mf_enjeux_forestiers": 0.25,
        "mf_aptitude_physique": 0.8125,
        "score_final": 0.4923638568887104,
        "classe_apt": "Potentiel de mobilisation modéré",
        "rang": 20,
        "ID": 12,
        "commune": "Reichstett",
        "epci": "Eurométropole de Strasbourg",
        "superficie_ha": 16.74
      },
      "geometry": {
        "type": "Point",
        "coordinates": [
          7.77122954706698,
          48.63900730496404
        ]
      }
    },
    {
      "type": "Feature",
      "properties": {
        "fid": 17,
        "acess_TC": "Moins de 5 minutes",
        "articu_piste_cyclable": "Absence",
        "acess_restauration": "Moins de 5 minutes",
        "acess_echangeur": "Plus de 20 minutes",
        "proximite_res_elect": "Moins de 400 m",
        "articu_zae_existante": "Moins de 500 m",
        "enjeux_forestier": "Oui",
        "expo_risq_inondation": "Non",
        "expo_risque_mvt_terrain": "Oui",
        "pres_zone_hum_res_biodiv": "Oui",
        "pente_moy_terrain": "Faible (< 10 %)",
        "posi_armature_urbaine": "Les Polarités",
        "maitrise_fonciere": "Mixte",
        "proximite_aep": "Moins de 400 m",
        "proximite_res_chauffage_urb": "Plus de 400 m",
        "std_acess_TC": 1.0,
        "std_articu_piste_cyclable": 0.5,
        "std_acess_restauration": 1.0,
        "std_acess_echangeur": 0.5,
        "std_posi_armature_urbaine": 0.75,
        "std_proximite_res_elect": 0.75,
        "std_articu_zae_existante": 1.0,
        "std_proximite_aep": 1.0,
        "std_proximite_res_chauffage_urb": 0.5,
        "std_enjeux_forestier": 0.25,
        "std_expo_risq_inondation": 1.0,
        "std_expo_risque_mvt_terrain": 0.25,
        "std_pres_zone_hum_res_biodiv": 0.25,
        "std_pente_moy_terrain": 1.0,
        "std_maitrise_fonciere": 0.75,
        "mf_attractivite_geog": 0.6968849805860305,
        "mf_aptitude_aux_rese": 0.868421052631579,
        "mf_enjeux_forestiers": 0.4796875,
        "mf_aptitude_physique": 0.8125,
        "score_final": 0.6120835688626316,
        "classe_apt": "Potentiel de mobilisation modéré",
        "rang": 9,
        "ID": 13,
        "commune": "Gerstheim",
        "epci": "CdC du Canton d'Erstein",
        "superficie_ha": 6.29
      },
      "geometry": {
        "type": "Point",
        "coordinates": [
          7.716521573465539,
          48.38606488322232
        ]
      }
    },
    {
      "type": "Feature",
      "properties": {
        "fid": 20,
        "acess_TC": "Entre 5 et 10 minutes",
        "articu_piste_cyclable": "Acces direct",
        "acess_restauration": "Moins de 5 minutes",
        "acess_echangeur": "Moins de 10 minutes",
        "proximite_res_elect": "Plus de 400 m",
        "articu_zae_existante": "Moins de 500 m",
        "enjeux_forestier": "Non",
        "expo_risq_inondation": "Oui",
        "expo_risque_mvt_terrain": "Oui",
        "pres_zone_hum_res_biodiv": "Oui",
        "pente_moy_terrain": "Faible (< 10 %)",
        "posi_armature_urbaine": "Les Polarités",
        "maitrise_fonciere": "Privé",
        "proximite_aep": "Moins de 400 m",
        "proximite_res_chauffage_urb": "Plus de 400 m",
        "std_acess_TC": 0.75,
        "std_articu_piste_cyclable": 1.0,
        "std_acess_restauration": 1.0,
        "std_acess_echangeur": 1.0,
        "std_posi_armature_urbaine": 0.75,
        "std_proximite_res_elect": 0.5,
        "std_articu_zae_existante": 1.0,
        "std_proximite_aep": 1.0,
        "std_proximite_res_chauffage_urb": 0.5,
        "std_enjeux_forestier": 1.0,
        "std_expo_risq_inondation": 0.25,
        "std_expo_risque_mvt_terrain": 0.25,
        "std_pres_zone_hum_res_biodiv": 0.25,
        "std_pente_moy_terrain": 1.0,
        "std_maitrise_fonciere": 0.5,
        "mf_attractivite_geog": 0.8704480734108799,
        "mf_aptitude_aux_rese": 0.7711893369788106,
        "mf_enjeux_forestiers": 0.3578125,
        "mf_aptitude_physique": 0.625,
        "score_final": 0.5140955167086807,
        "classe_apt": "Potentiel de mobilisation modéré",
        "rang": 17,
        "ID": 14,
        "commune": "Plobsheim",
        "epci": "Eurométropole de Strasbourg",
        "superficie_ha": 20.74
      },
      "geometry": {
        "type": "Point",
        "coordinates": [
          7.724842399678562,
          48.478453418730545
        ]
      }
    },
    {
      "type": "Feature",
      "properties": {
        "fid": 24,
        "acess_TC": "Plus de 10 minutes",
        "articu_piste_cyclable": "Acces direct",
        "acess_restauration": "Moins de 5 minutes",
        "acess_echangeur": "Moins de 10 minutes",
        "proximite_res_elect": "Plus de 400 m",
        "articu_zae_existante": "Moins de 500 m",
        "enjeux_forestier": "Non",
        "expo_risq_inondation": "Oui",
        "expo_risque_mvt_terrain": "Oui",
        "pres_zone_hum_res_biodiv": "Oui",
        "pente_moy_terrain": "Faible (< 10 %)",
        "posi_armature_urbaine": "Les Polarités",
        "maitrise_fonciere": "Public",
        "proximite_aep": "Plus de 400 m",
        "proximite_res_chauffage_urb": "Plus de 400 m",
        "std_acess_TC": 0.5,
        "std_articu_piste_cyclable": 1.0,
        "std_acess_restauration": 1.0,
        "std_acess_echangeur": 1.0,
        "std_posi_armature_urbaine": 0.75,
        "std_proximite_res_elect": 0.5,
        "std_articu_zae_existante": 1.0,
        "std_proximite_aep": 0.5,
        "std_proximite_res_chauffage_urb": 0.5,
        "std_enjeux_forestier": 1.0,
        "std_expo_risq_inondation": 0.25,
        "std_expo_risque_mvt_terrain": 0.25,
        "std_pres_zone_hum_res_biodiv": 0.25,
        "std_pente_moy_terrain": 1.0,
        "std_maitrise_fonciere": 1.0,
        "mf_attractivite_geog": 0.8279927723021557,
        "mf_aptitude_aux_rese": 0.5767259056732741,
        "mf_enjeux_forestiers": 0.3578125,
        "mf_aptitude_physique": 1.0,
        "score_final": 0.5847905430532618,
        "classe_apt": "Potentiel de mobilisation modéré",
        "rang": 10,
        "ID": 15,
        "commune": "Holtzheim",
        "epci": "Eurométropole de Strasbourg",
        "superficie_ha": 24.22
      },
      "geometry": {
        "type": "Point",
        "coordinates": [
          7.634573613214378,
          48.549830874379694
        ]
      }
    },
    {
      "type": "Feature",
      "properties": {
        "fid": 26,
        "acess_TC": "Plus de 10 minutes",
        "articu_piste_cyclable": "Acces direct",
        "acess_restauration": "Moins de 5 minutes",
        "acess_echangeur": "Moins de 10 minutes",
        "proximite_res_elect": "Moins de 400 m",
        "articu_zae_existante": "Moins de 500 m",
        "enjeux_forestier": "Non",
        "expo_risq_inondation": "Oui",
        "expo_risque_mvt_terrain": "Oui",
        "pres_zone_hum_res_biodiv": "Oui",
        "pente_moy_terrain": "Faible (< 10 %)",
        "posi_armature_urbaine": "Les Polarités",
        "maitrise_fonciere": "Mixte",
        "proximite_aep": "Moins de 400 m",
        "proximite_res_chauffage_urb": "Plus de 400 m",
        "std_acess_TC": 0.5,
        "std_articu_piste_cyclable": 1.0,
        "std_acess_restauration": 1.0,
        "std_acess_echangeur": 1.0,
        "std_posi_armature_urbaine": 0.75,
        "std_proximite_res_elect": 0.75,
        "std_articu_zae_existante": 1.0,
        "std_proximite_aep": 1.0,
        "std_proximite_res_chauffage_urb": 0.5,
        "std_enjeux_forestier": 1.0,
        "std_expo_risq_inondation": 0.25,
        "std_expo_risque_mvt_terrain": 0.25,
        "std_pres_zone_hum_res_biodiv": 0.25,
        "std_pente_moy_terrain": 1.0,
        "std_maitrise_fonciere": 0.75,
        "mf_attractivite_geog": 0.8279927723021557,
        "mf_aptitude_aux_rese": 0.868421052631579,
        "mf_enjeux_forestiers": 0.3578125,
        "mf_aptitude_physique": 0.8125,
        "score_final": 0.5595497603344001,
        "classe_apt": "Potentiel de mobilisation modéré",
        "rang": 12,
        "ID": 16,
        "commune": "Holtzheim",
        "epci": "Eurométropole de Strasbourg",
        "superficie_ha": 8.61
      },
      "geometry": {
        "type": "Point",
        "coordinates": [
          7.656835418078411,
          48.56462569656365
        ]
      }
    },
    {
      "type": "Feature",
      "properties": {
        "fid": 36,
        "acess_TC": "Plus de 10 minutes",
        "articu_piste_cyclable": "Acces direct",
        "acess_restauration": "Entre 5 et 10 minutes",
        "acess_echangeur": "Moins de 10 minutes",
        "proximite_res_elect": "Plus de 400 m",
        "articu_zae_existante": "Moins de 500 m",
        "enjeux_forestier": "Oui",
        "expo_risq_inondation": "Oui",
        "expo_risque_mvt_terrain": "Oui",
        "pres_zone_hum_res_biodiv": "Oui",
        "pente_moy_terrain": "Faible (< 10 %)",
        "posi_armature_urbaine": "Les Polarités",
        "maitrise_fonciere": "Mixte",
        "proximite_aep": "Moins de 400 m",
        "proximite_res_chauffage_urb": "Plus de 400 m",
        "std_acess_TC": 0.5,
        "std_articu_piste_cyclable": 1.0,
        "std_acess_restauration": 0.75,
        "std_acess_echangeur": 1.0,
        "std_posi_armature_urbaine": 0.75,
        "std_proximite_res_elect": 0.5,
        "std_articu_zae_existante": 1.0,
        "std_proximite_aep": 1.0,
        "std_proximite_res_chauffage_urb": 0.5,
        "std_enjeux_forestier": 0.25,
        "std_expo_risq_inondation": 0.25,
        "std_expo_risque_mvt_terrain": 0.25,
        "std_pres_zone_hum_res_biodiv": 0.25,
        "std_pente_moy_terrain": 1.0,
        "std_maitrise_fonciere": 0.75,
        "mf_attractivite_geog": 0.8155538958580626,
        "mf_aptitude_aux_rese": 0.7711893369788106,
        "mf_enjeux_forestiers": 0.25,
        "mf_aptitude_physique": 0.8125,
        "score_final": 0.4902219039781962,
        "classe_apt": "Potentiel de mobilisation modéré",
        "rang": 21,
        "ID": 17,
        "commune": "Hangenbieten",
        "epci": "Eurométropole de Strasbourg",
        "superficie_ha": 29.82
      },
      "geometry": {
        "type": "Point",
        "coordinates": [
          7.611897028237676,
          48.544551540816165
        ]
      }
    },
    {
      "type": "Feature",
      "properties": {
        "fid": 41,
        "acess_TC": "Plus de 10 minutes",
        "articu_piste_cyclable": "Acces direct",
        "acess_restauration": "Moins de 5 minutes",
        "acess_echangeur": "Moins de 10 minutes",
        "proximite_res_elect": "Moins de 400 m",
        "articu_zae_existante": "Moins de 500 m",
        "enjeux_forestier": "Oui",
        "expo_risq_inondation": "Oui",
        "expo_risque_mvt_terrain": "Oui",
        "pres_zone_hum_res_biodiv": "Oui",
        "pente_moy_terrain": "Faible (< 10 %)",
        "posi_armature_urbaine": "Coeur métropolitain",
        "maitrise_fonciere": "Public",
        "proximite_aep": "Moins de 400 m",
        "proximite_res_chauffage_urb": "Plus de 400 m",
        "std_acess_TC": 0.5,
        "std_articu_piste_cyclable": 1.0,
        "std_acess_restauration": 1.0,
        "std_acess_echangeur": 1.0,
        "std_posi_armature_urbaine": 1.0,
        "std_proximite_res_elect": 0.75,
        "std_articu_zae_existante": 1.0,
        "std_proximite_aep": 1.0,
        "std_proximite_res_chauffage_urb": 0.5,
        "std_enjeux_forestier": 0.25,
        "std_expo_risq_inondation": 0.25,
        "std_expo_risque_mvt_terrain": 0.25,
        "std_pres_zone_hum_res_biodiv": 0.25,
        "std_pente_moy_terrain": 1.0,
        "std_maitrise_fonciere": 1.0,
        "mf_attractivite_geog": 0.9150893977825514,
        "mf_aptitude_aux_rese": 0.868421052631579,
        "mf_enjeux_forestiers": 0.25,
        "mf_aptitude_physique": 1.0,
        "score_final": 0.553857194015027,
        "classe_apt": "Potentiel de mobilisation modéré",
        "rang": 13,
        "ID": 18,
        "commune": "Eckbolsheim",
        "epci": "Eurométropole de Strasbourg",
        "superficie_ha": 41.01
      },
      "geometry": {
        "type": "Point",
        "coordinates": [
          7.6782156437373175,
          48.595352880877755
        ]
      }
    },
    {
      "type": "Feature",
      "properties": {
        "fid": 45,
        "acess_TC": "Plus de 10 minutes",
        "articu_piste_cyclable": "Acces indirect",
        "acess_restauration": "Entre 5 et 10 minutes",
        "acess_echangeur": "Moins de 10 minutes",
        "proximite_res_elect": "Moins de 400 m",
        "articu_zae_existante": "Moins de 500 m",
        "enjeux_forestier": "Oui",
        "expo_risq_inondation": "Oui",
        "expo_risque_mvt_terrain": "Oui",
        "pres_zone_hum_res_biodiv": "Oui",
        "pente_moy_terrain": "Faible (< 10 %)",
        "posi_armature_urbaine": "Coeur métropolitain",
        "maitrise_fonciere": "Privé",
        "proximite_aep": "Moins de 400 m",
        "proximite_res_chauffage_urb": "Plus de 400 m",
        "std_acess_TC": 0.5,
        "std_articu_piste_cyclable": 0.75,
        "std_acess_restauration": 0.75,
        "std_acess_echangeur": 1.0,
        "std_posi_armature_urbaine": 1.0,
        "std_proximite_res_elect": 0.75,
        "std_articu_zae_existante": 1.0,
        "std_proximite_aep": 1.0,
        "std_proximite_res_chauffage_urb": 0.5,
        "std_enjeux_forestier": 0.25,
        "std_expo_risq_inondation": 0.25,
        "std_expo_risque_mvt_terrain": 0.25,
        "std_pres_zone_hum_res_biodiv": 0.25,
        "std_pente_moy_terrain": 1.0,
        "std_maitrise_fonciere": 0.5,
        "mf_attractivite_geog": 0.881737949852067,
        "mf_aptitude_aux_rese": 0.868421052631579,
        "mf_enjeux_forestiers": 0.25,
        "mf_aptitude_physique": 0.625,
        "score_final": 0.46063078093788906,
        "classe_apt": "Potentiel de mobilisation modéré",
        "rang": 23,
        "ID": 19,
        "commune": "Strasbourg",
        "epci": "Eurométropole de Strasbourg",
        "superficie_ha": 45.62
      },
      "geometry": {
        "type": "Point",
        "coordinates": [
          7.77791821548784,
          48.50971505745039
        ]
      }
    },
    {
      "type": "Feature",
      "properties": {
        "fid": 55,
        "acess_TC": "Plus de 10 minutes",
        "articu_piste_cyclable": "Acces indirect",
        "acess_restauration": "Moins de 5 minutes",
        "acess_echangeur": "Moins de 10 minutes",
        "proximite_res_elect": "Plus de 400 m",
        "articu_zae_existante": "Moins de 500 m",
        "enjeux_forestier": "Oui",
        "expo_risq_inondation": "Oui",
        "expo_risque_mvt_terrain": "Oui",
        "pres_zone_hum_res_biodiv": "Oui",
        "pente_moy_terrain": "Faible (< 10 %)",
        "posi_armature_urbaine": "Les Polarités",
        "maitrise_fonciere": "Public",
        "proximite_aep": "Moins de 400 m",
        "proximite_res_chauffage_urb": "Plus de 400 m",
        "std_acess_TC": 0.5,
        "std_articu_piste_cyclable": 0.75,
        "std_acess_restauration": 1.0,
        "std_acess_echangeur": 1.0,
        "std_posi_armature_urbaine": 0.75,
        "std_proximite_res_elect": 0.5,
        "std_articu_zae_existante": 1.0,
        "std_proximite_aep": 1.0,
        "std_proximite_res_chauffage_urb": 0.5,
        "std_enjeux_forestier": 0.25,
        "std_expo_risq_inondation": 0.25,
        "std_expo_risque_mvt_terrain": 0.25,
        "std_pres_zone_hum_res_biodiv": 0.25,
        "std_pente_moy_terrain": 1.0,
        "std_maitrise_fonciere": 1.0,
        "mf_attractivite_geog": 0.8070802008157645,
        "mf_aptitude_aux_rese": 0.7711893369788106,
        "mf_enjeux_forestiers": 0.25,
        "mf_aptitude_physique": 1.0,
        "score_final": 0.5336148825553695,
        "classe_apt": "Potentiel de mobilisation modéré",
        "rang": 16,
        "ID": 20,
        "commune": "Entzheim",
        "epci": "Eurométropole de Strasbourg",
        "superficie_ha": 55.75
      },
      "geometry": {
        "type": "Point",
        "coordinates": [
          7.641518273380362,
          48.541432383154756
        ]
      }
    },
    {
      "type": "Feature",
      "properties": {
        "fid": 59,
        "acess_TC": "Plus de 10 minutes",
        "articu_piste_cyclable": "Acces direct",
        "acess_restauration": "Moins de 5 minutes",
        "acess_echangeur": "Moins de 10 minutes",
        "proximite_res_elect": "Moins de 400 m",
        "articu_zae_existante": "Moins de 500 m",
        "enjeux_forestier": "Non",
        "expo_risq_inondation": "Oui",
        "expo_risque_mvt_terrain": "Oui",
        "pres_zone_hum_res_biodiv": "Non",
        "pente_moy_terrain": "Faible (< 10 %)",
        "posi_armature_urbaine": "Les Polarités",
        "maitrise_fonciere": "Mixte",
        "proximite_aep": "Moins de 400 m",
        "proximite_res_chauffage_urb": "Plus de 400 m",
        "std_acess_TC": 0.5,
        "std_articu_piste_cyclable": 1.0,
        "std_acess_restauration": 1.0,
        "std_acess_echangeur": 1.0,
        "std_posi_armature_urbaine": 0.75,
        "std_proximite_res_elect": 0.75,
        "std_articu_zae_existante": 1.0,
        "std_proximite_aep": 1.0,
        "std_proximite_res_chauffage_urb": 0.5,
        "std_enjeux_forestier": 1.0,
        "std_expo_risq_inondation": 0.25,
        "std_expo_risque_mvt_terrain": 0.25,
        "std_pres_zone_hum_res_biodiv": 1.0,
        "std_pente_moy_terrain": 1.0,
        "std_maitrise_fonciere": 0.75,
        "mf_attractivite_geog": 0.8279927723021557,
        "mf_aptitude_aux_rese": 0.868421052631579,
        "mf_enjeux_forestiers": 0.540625,
        "mf_aptitude_physique": 0.8125,
        "score_final": 0.6635317890478741,
        "classe_apt": "Potentiel de mobilisation modéré",
        "rang": 7,
        "ID": 21,
        "commune": "Reichstett - Mundolsheim",
        "epci": "Eurométropole de Strasbourg",
        "superficie_ha": 11.67
      },
      "geometry": {
        "type": "Point",
        "coordinates": [
          7.727558365250989,
          48.646666246618615
        ]
      }
    },
    {
      "type": "Feature",
      "properties": {
        "fid": 74,
        "acess_TC": "Plus de 10 minutes",
        "articu_piste_cyclable": "Acces direct",
        "acess_restauration": "Moins de 5 minutes",
        "acess_echangeur": "Moins de 10 minutes",
        "proximite_res_elect": "Moins de 400 m",
        "articu_zae_existante": "Moins de 500 m",
        "enjeux_forestier": "Oui",
        "expo_risq_inondation": "Oui",
        "expo_risque_mvt_terrain": "Oui",
        "pres_zone_hum_res_biodiv": "Oui",
        "pente_moy_terrain": "Faible (< 10 %)",
        "posi_armature_urbaine": "Coeur métropolitain",
        "maitrise_fonciere": "Public",
        "proximite_aep": "Moins de 400 m",
        "proximite_res_chauffage_urb": "Plus de 400 m",
        "std_acess_TC": 0.5,
        "std_articu_piste_cyclable": 1.0,
        "std_acess_restauration": 1.0,
        "std_acess_echangeur": 1.0,
        "std_posi_armature_urbaine": 1.0,
        "std_proximite_res_elect": 0.75,
        "std_articu_zae_existante": 1.0,
        "std_proximite_aep": 1.0,
        "std_proximite_res_chauffage_urb": 0.5,
        "std_enjeux_forestier": 0.25,
        "std_expo_risq_inondation": 0.25,
        "std_expo_risque_mvt_terrain": 0.25,
        "std_pres_zone_hum_res_biodiv": 0.25,
        "std_pente_moy_terrain": 1.0,
        "std_maitrise_fonciere": 1.0,
        "mf_attractivite_geog": 0.9150893977825514,
        "mf_aptitude_aux_rese": 0.868421052631579,
        "mf_enjeux_forestiers": 0.25,
        "mf_aptitude_physique": 1.0,
        "score_final": 0.553857194015027,
        "classe_apt": "Potentiel de mobilisation modéré",
        "rang": 14,
        "ID": 22,
        "commune": "Illkirch-Graffenstaden",
        "epci": "Eurométropole de Strasbourg",
        "superficie_ha": 74.08
      },
      "geometry": {
        "type": "Point",
        "coordinates": [
          7.735311663298001,
          48.51446792412215
        ]
      }
    },
    {
      "type": "Feature",
      "properties": {
        "fid": 315,
        "acess_TC": "Plus de 10 minutes",
        "articu_piste_cyclable": "Acces indirect",
        "acess_restauration": "Plus de 10 minutes",
        "acess_echangeur": "Moins de 10 minutes",
        "proximite_res_elect": "Moins de 400 m",
        "articu_zae_existante": "Moins de 500 m",
        "enjeux_forestier": "Oui",
        "expo_risq_inondation": "Oui",
        "expo_risque_mvt_terrain": "Oui",
        "pres_zone_hum_res_biodiv": "Oui",
        "pente_moy_terrain": "Faible (< 10 %)",
        "posi_armature_urbaine": "Les Polarités",
        "maitrise_fonciere": "Public",
        "proximite_aep": "Moins de 400 m",
        "proximite_res_chauffage_urb": "Plus de 400 m",
        "std_acess_TC": 0.5,
        "std_articu_piste_cyclable": 0.75,
        "std_acess_restauration": 0.5,
        "std_acess_echangeur": 1.0,
        "std_posi_armature_urbaine": 0.75,
        "std_proximite_res_elect": 0.75,
        "std_articu_zae_existante": 1.0,
        "std_proximite_aep": 1.0,
        "std_proximite_res_chauffage_urb": 0.5,
        "std_enjeux_forestier": 0.25,
        "std_expo_risq_inondation": 0.25,
        "std_expo_risque_mvt_terrain": 0.25,
        "std_pres_zone_hum_res_biodiv": 0.25,
        "std_pente_moy_terrain": 1.0,
        "std_maitrise_fonciere": 1.0,
        "mf_attractivite_geog": 0.7822024479275782,
        "mf_aptitude_aux_rese": 0.868421052631579,
        "mf_enjeux_forestiers": 0.25,
        "mf_aptitude_physique": 1.0,
        "score_final": 0.5368418398432558,
        "classe_apt": "Potentiel de mobilisation modéré",
        "rang": 15,
        "ID": 23,
        "commune": "La Wantzenau",
        "epci": "Eurométropole de Strasbourg",
        "superficie_ha": 315.89
      },
      "geometry": {
        "type": "Point",
        "coordinates": [
          7.789608242209782,
          48.661661022981555
        ]
      }
    }
  ]
}